start=new Date('2022-10-13T00:00:00.000Z').valueOf();
sats=[{"OBJECT_NAME":"STARLINK-3593","ARG_OF_PERICENTER":"58.3808","EPHEMERIS_TYPE":"0","NORAD_CAT_ID":"51896","RA_OF_ASC_NODE":"182.8029","LAUNCH_DATE":"2022-03-03","PERIAPSIS":"538.605","SEMIMAJOR_AXIS":"6917.876","MEAN_MOTION":"15.08841576","REF_FRAME":"TEME","EPOCH":"2022-10-12T21:04:16.337568","GP_ID":"214922343","OBJECT_TYPE":"PAYLOAD","MEAN_MOTION_DDOT":"0.0000000000000","RCS_SIZE":"LARGE","OBJECT_ID":"2022-022AW","TLE_LINE1":"1 51896U 22022AW  22285.87796687  .00002908  00000-0  20073-3 0  9998","MEAN_ANOMALY":"301.7344","MEAN_ELEMENT_THEORY":"SGP4","PERIOD":"95.437","MEAN_MOTION_DOT":"0.00002908","CENTER_NAME":"EARTH","FILE":"3606891","COUNTRY_CODE":"US","APOAPSIS":"540.876","DECAY_DATE":null,"TLE_LINE2":"2 51896  53.2175 182.8029 0001642  58.3808 301.7344 15.08841576 35521","BSTAR":"0.00020073000000","ELEMENT_SET_NO":"999","CLASSIFICATION_TYPE":"U","INCLINATION":"53.2175","REV_AT_EPOCH":"3552","ECCENTRICITY":"0.00016420","TIME_SYSTEM":"UTC","SITE":"AFETR"},{"CENTER_NAME":"EARTH","PERIOD":"95.438","MEAN_MOTION_DOT":"-0.00000110","APOAPSIS":"540.789","DECAY_DATE":null,"FILE":"3606891","COUNTRY_CODE":"US","ELEMENT_SET_NO":"999","CLASSIFICATION_TYPE":"U","BSTAR":"0.00001115700000","TLE_LINE2":"2 51897  53.2204 183.4299 0001476  72.2100 287.9053 15.08832527 35456","ECCENTRICITY":"0.00014760","TIME_SYSTEM":"UTC","SITE":"AFETR","INCLINATION":"53.2204","REV_AT_EPOCH":"3545","EPHEMERIS_TYPE":"0","NORAD_CAT_ID":"51897","RA_OF_ASC_NODE":"183.4299","OBJECT_NAME":"STARLINK-3598","ARG_OF_PERICENTER":"72.2100","MEAN_MOTION":"15.08832527","LAUNCH_DATE":"2022-03-03","PERIAPSIS":"538.747","SEMIMAJOR_AXIS":"6917.903","GP_ID":"214923093","OBJECT_TYPE":"PAYLOAD","REF_FRAME":"TEME","EPOCH":"2022-10-12T17:46:50.371392","MEAN_ANOMALY":"287.9053","MEAN_ELEMENT_THEORY":"SGP4","MEAN_MOTION_DDOT":"0.0000000000000","RCS_SIZE":"LARGE","OBJECT_ID":"2022-022AX","TLE_LINE1":"1 51897U 22022AX  22285.74086078 -.00000110  00000-0  11157-4 0  9999"},{"OBJECT_TYPE":"PAYLOAD","GP_ID":"214923338","EPOCH":"2022-10-12T20:52:18.688800","REF_FRAME":"TEME","MEAN_ELEMENT_THEORY":"SGP4","MEAN_ANOMALY":"294.4585","TLE_LINE1":"1 51898U 22022AY  22285.86966075  .00001086  00000-0  86342-4 0  9997","OBJECT_ID":"2022-022AY","RCS_SIZE":"LARGE","MEAN_MOTION_DDOT":"0.0000000000000","RA_OF_ASC_NODE":"182.8506","NORAD_CAT_ID":"51898","EPHEMERIS_TYPE":"0","ARG_OF_PERICENTER":"65.6563","OBJECT_NAME":"STARLINK-3597","MEAN_MOTION":"15.08826627","SEMIMAJOR_AXIS":"6917.921","PERIAPSIS":"538.747","LAUNCH_DATE":"2022-03-03","CLASSIFICATION_TYPE":"U","ELEMENT_SET_NO":"999","BSTAR":"0.00008634200000","TLE_LINE2":"2 51898  53.2184 182.8506 0001502  65.6563 294.4585 15.08826627 35522","SITE":"AFETR","ECCENTRICITY":"0.00015020","TIME_SYSTEM":"UTC","REV_AT_EPOCH":"3552","INCLINATION":"53.2184","CENTER_NAME":"EARTH","MEAN_MOTION_DOT":"0.00001086","PERIOD":"95.438","DECAY_DATE":null,"APOAPSIS":"540.825","COUNTRY_CODE":"US","FILE":"3606891"},{"LAUNCH_DATE":"2022-03-09","SEMIMAJOR_AXIS":"6917.929","PERIAPSIS":"538.586","MEAN_MOTION":"15.08824249","ARG_OF_PERICENTER":"51.0370","OBJECT_NAME":"STARLINK-3700","NORAD_CAT_ID":"51956","EPHEMERIS_TYPE":"0","RA_OF_ASC_NODE":"213.0420","MEAN_MOTION_DDOT":"0.0000000000000","TLE_LINE1":"1 51956U 22025A   22285.82641804 -.00001101  00000-0 -51122-4 0  9999","OBJECT_ID":"2022-025A","RCS_SIZE":"LARGE","MEAN_ANOMALY":"309.0778","MEAN_ELEMENT_THEORY":"SGP4","REF_FRAME":"TEME","EPOCH":"2022-10-12T19:50:02.518656","OBJECT_TYPE":"PAYLOAD","GP_ID":"214923841","FILE":"3606891","COUNTRY_CODE":"US","APOAPSIS":"541.001","DECAY_DATE":null,"PERIOD":"95.439","MEAN_MOTION_DOT":"-0.00001101","CENTER_NAME":"EARTH","INCLINATION":"53.2170","REV_AT_EPOCH":"3341","TIME_SYSTEM":"UTC","ECCENTRICITY":"0.00017460","SITE":"AFETR","BSTAR":"-0.00005112200000","TLE_LINE2":"2 51956  53.2170 213.0420 0001746  51.0370 309.0778 15.08824249 33410","ELEMENT_SET_NO":"999","CLASSIFICATION_TYPE":"U"},{"PERIAPSIS":"538.783","SEMIMAJOR_AXIS":"6917.893","LAUNCH_DATE":"2022-03-09","MEAN_MOTION":"15.08835855","OBJECT_NAME":"STARLINK-3694","ARG_OF_PERICENTER":"65.8709","RA_OF_ASC_NODE":"213.1214","EPHEMERIS_TYPE":"0","NORAD_CAT_ID":"51957","RCS_SIZE":"LARGE","OBJECT_ID":"2022-025B","TLE_LINE1":"1 51957U 22025B   22285.80803524  .00006042  00000-0  39745-3 0  9990","MEAN_MOTION_DDOT":"0.0000000000000","MEAN_ELEMENT_THEORY":"SGP4","MEAN_ANOMALY":"294.2430","EPOCH":"2022-10-12T19:23:34.244736","REF_FRAME":"TEME","GP_ID":"214924082","OBJECT_TYPE":"PAYLOAD","COUNTRY_CODE":"US","FILE":"3606891","DECAY_DATE":null,"APOAPSIS":"540.733","MEAN_MOTION_DOT":"0.00006042","PERIOD":"95.438","CENTER_NAME":"EARTH","REV_AT_EPOCH":"3341","INCLINATION":"53.2169","SITE":"AFETR","TIME_SYSTEM":"UTC","ECCENTRICITY":"0.00014090","BSTAR":"0.00039745000000","TLE_LINE2":"2 51957  53.2169 213.1214 0001409  65.8709 294.2430 15.08835855 33411","CLASSIFICATION_TYPE":"U","ELEMENT_SET_NO":"999"},{"REF_FRAME":"TEME","EPOCH":"2022-10-12T19:44:44.866464","GP_ID":"214922346","OBJECT_TYPE":"PAYLOAD","MEAN_MOTION_DDOT":"0.0000000000000","RCS_SIZE":"LARGE","TLE_LINE1":"1 51958U 22025C   22285.82274151  .00010456  00000-0  67418-3 0  9993","OBJECT_ID":"2022-025C","MEAN_ANOMALY":"316.5408","MEAN_ELEMENT_THEORY":"SGP4","OBJECT_NAME":"STARLINK-3692","ARG_OF_PERICENTER":"43.5721","EPHEMERIS_TYPE":"0","NORAD_CAT_ID":"51958","RA_OF_ASC_NODE":"213.0671","LAUNCH_DATE":"2022-03-09","PERIAPSIS":"538.559","SEMIMAJOR_AXIS":"6917.895","MEAN_MOTION":"15.08835260","TLE_LINE2":"2 51958  53.2155 213.0671 0001736  43.5721 316.5408 15.08835260 33416","BSTAR":"0.00067418000000","ELEMENT_SET_NO":"999","CLASSIFICATION_TYPE":"U","INCLINATION":"53.2155","REV_AT_EPOCH":"3341","TIME_SYSTEM":"UTC","ECCENTRICITY":"0.00017360","SITE":"AFETR","PERIOD":"95.438","MEAN_MOTION_DOT":"0.00010456","CENTER_NAME":"EARTH","FILE":"3606891","COUNTRY_CODE":"US","APOAPSIS":"540.961","DECAY_DATE":null},{"EPOCH":"2022-10-12T19:28:50.152512","REF_FRAME":"TEME","OBJECT_TYPE":"PAYLOAD","GP_ID":"214923096","OBJECT_ID":"2022-025D","TLE_LINE1":"1 51959U 22025D   22285.81169158  .00002180  00000-0  15505-3 0  9998","RCS_SIZE":"LARGE","MEAN_MOTION_DDOT":"0.0000000000000","MEAN_ELEMENT_THEORY":"SGP4","MEAN_ANOMALY":"304.9261","ARG_OF_PERICENTER":"55.1863","OBJECT_NAME":"STARLINK-3704","RA_OF_ASC_NODE":"213.0964","NORAD_CAT_ID":"51959","EPHEMERIS_TYPE":"0","SEMIMAJOR_AXIS":"6917.890","PERIAPSIS":"538.784","LAUNCH_DATE":"2022-03-09","MEAN_MOTION":"15.08836992","BSTAR":"0.00015505000000","TLE_LINE2":"2 51959  53.2148 213.0964 0001403  55.1863 304.9261 15.08836992 33412","CLASSIFICATION_TYPE":"U","ELEMENT_SET_NO":"999","REV_AT_EPOCH":"3341","INCLINATION":"53.2148","SITE":"AFETR","TIME_SYSTEM":"UTC","ECCENTRICITY":"0.00014030","MEAN_MOTION_DOT":"0.00002180","PERIOD":"95.438","CENTER_NAME":"EARTH","COUNTRY_CODE":"US","FILE":"3606891","DECAY_DATE":null,"APOAPSIS":"540.725"},{"ELEMENT_SET_NO":"999","CLASSIFICATION_TYPE":"U","BSTAR":"0.00007500800000","TLE_LINE2":"2 51960  53.2179 214.3236 0001598  50.6829 309.4304 15.08839005 34463","ECCENTRICITY":"0.00015980","TIME_SYSTEM":"UTC","SITE":"AFETR","INCLINATION":"53.2179","REV_AT_EPOCH":"3446","CENTER_NAME":"EARTH","PERIOD":"95.438","MEAN_MOTION_DOT":"0.00000906","APOAPSIS":"540.854","DECAY_DATE":null,"FILE":"3606586","COUNTRY_CODE":"US","OBJECT_TYPE":"PAYLOAD","GP_ID":"214892500","REF_FRAME":"TEME","EPOCH":"2022-10-12T12:56:42.223776","MEAN_ANOMALY":"309.4304","MEAN_ELEMENT_THEORY":"SGP4","MEAN_MOTION_DDOT":"0.0000000000000","TLE_LINE1":"1 51960U 22025E   22285.53937759  .00000906  00000-0  75008-4 0  9998","OBJECT_ID":"2022-025E","RCS_SIZE":"LARGE","NORAD_CAT_ID":"51960","EPHEMERIS_TYPE":"0","RA_OF_ASC_NODE":"214.3236","ARG_OF_PERICENTER":"50.6829","OBJECT_NAME":"STARLINK-3691","MEAN_MOTION":"15.08839005","LAUNCH_DATE":"2022-03-09","SEMIMAJOR_AXIS":"6917.883","PERIAPSIS":"538.643"},{"PERIOD":"95.438","MEAN_MOTION_DOT":"0.00002515","CENTER_NAME":"EARTH","FILE":"3606891","COUNTRY_CODE":"US","APOAPSIS":"540.886","DECAY_DATE":null,"BSTAR":"0.00017605000000","TLE_LINE2":"2 51961  53.2183 213.3782 0001629  48.4110 311.7021 15.08835383 33407","ELEMENT_SET_NO":"999","CLASSIFICATION_TYPE":"U","INCLINATION":"53.2183","REV_AT_EPOCH":"3340","TIME_SYSTEM":"UTC","ECCENTRICITY":"0.00016290","SITE":"AFETR","ARG_OF_PERICENTER":"48.4110","OBJECT_NAME":"STARLINK-3689","NORAD_CAT_ID":"51961","EPHEMERIS_TYPE":"0","RA_OF_ASC_NODE":"213.3782","LAUNCH_DATE":"2022-03-09","SEMIMAJOR_AXIS":"6917.895","PERIAPSIS":"538.633","MEAN_MOTION":"15.08835383","REF_FRAME":"TEME","EPOCH":"2022-10-12T18:04:03.566784","OBJECT_TYPE":"PAYLOAD","GP_ID":"214923582","MEAN_MOTION_DDOT":"0.0000000000000","TLE_LINE1":"1 51961U 22025F   22285.75281906  .00002515  00000-0  17605-3 0  9995","OBJECT_ID":"2022-025F","RCS_SIZE":"LARGE","MEAN_ANOMALY":"311.7021","MEAN_ELEMENT_THEORY":"SGP4"},{"DECAY_DATE":null,"APOAPSIS":"540.918","COUNTRY_CODE":"US","FILE":"3606891","CENTER_NAME":"EARTH","MEAN_MOTION_DOT":"0.00001896","PERIOD":"95.438","SITE":"AFETR","ECCENTRICITY":"0.00016610","TIME_SYSTEM":"UTC","REV_AT_EPOCH":"3341","INCLINATION":"53.2193","CLASSIFICATION_TYPE":"U","ELEMENT_SET_NO":"999","BSTAR":"0.00013719000000","TLE_LINE2":"2 51962  53.2193 213.1734 0001661  40.0644 320.0470 15.08832207 33414","MEAN_MOTION":"15.08832207","SEMIMAJOR_AXIS":"6917.904","PERIAPSIS":"538.620","LAUNCH_DATE":"2022-03-09","RA_OF_ASC_NODE":"213.1734","NORAD_CAT_ID":"51962","EPHEMERIS_TYPE":"0","ARG_OF_PERICENTER":"40.0644","OBJECT_NAME":"STARLINK-3697","MEAN_ELEMENT_THEORY":"SGP4","MEAN_ANOMALY":"320.0470","TLE_LINE1":"1 51962U 22025G   22285.79792838  .00001896  00000-0  13719-3 0  9994","OBJECT_ID":"2022-025G","RCS_SIZE":"LARGE","MEAN_MOTION_DDOT":"0.0000000000000","OBJECT_TYPE":"PAYLOAD","GP_ID":"214922847","EPOCH":"2022-10-12T19:09:01.012032","REF_FRAME":"TEME"}];
